start=new Date('2022-05-07T00:00:00.000Z').valueOf();
sats=[{"OBJECT_NAME":"STARLINK-2215","CLASSIFICATION_TYPE":"U","RCS_SIZE":"LARGE","LAUNCH_DATE":"2021-05-15","RA_OF_ASC_NODE":"320.5364","BSTAR":"0.00040682000000","INCLINATION":"53.0562","PERIOD":"95.592","EPHEMERIS_TYPE":"0","DECAY_DATE":null,"COUNTRY_CODE":"US","REV_AT_EPOCH":"5357","TLE_LINE1":"1 48567U 21041Q   22126.55493449  .00005785  00000-0  40682-3 0  9992","MEAN_MOTION_DOT":"0.00005785","MEAN_MOTION_DDOT":"0.0000000000000","NORAD_CAT_ID":"48567","OBJECT_ID":"2021-041Q","TIME_SYSTEM":"UTC","APOAPSIS":"548.173","MEAN_ELEMENT_THEORY":"SGP4","PERIAPSIS":"546.202","ARG_OF_PERICENTER":"78.3171","FILE":"3432208","REF_FRAME":"TEME","EPOCH":"2022-05-06T13:19:06.339936","TLE_LINE2":"2 48567  53.0562 320.5364 0001423  78.3171 281.7977 15.06408447 53573","SITE":"AFETR","ELEMENT_SET_NO":"999","ECCENTRICITY":"0.00014230","GP_ID":"202862072","SEMIMAJOR_AXIS":"6925.323","MEAN_MOTION":"15.06408447","CENTER_NAME":"EARTH","MEAN_ANOMALY":"281.7977","OBJECT_TYPE":"PAYLOAD"},{"EPOCH":"2022-05-06T12:00:49.479552","TLE_LINE2":"2 48568  53.0556 310.7850 0001174  85.8974 274.2149 15.06397608 53704","ELEMENT_SET_NO":"999","SITE":"AFETR","REF_FRAME":"TEME","FILE":"3432208","OBJECT_TYPE":"PAYLOAD","MEAN_ANOMALY":"274.2149","MEAN_MOTION":"15.06397608","CENTER_NAME":"EARTH","SEMIMAJOR_AXIS":"6925.356","ECCENTRICITY":"0.00011740","GP_ID":"202860346","PERIOD":"95.592","EPHEMERIS_TYPE":"0","INCLINATION":"53.0556","BSTAR":"-0.00001032500000","LAUNCH_DATE":"2021-05-15","RA_OF_ASC_NODE":"310.7850","RCS_SIZE":"LARGE","CLASSIFICATION_TYPE":"U","OBJECT_NAME":"STARLINK-2217","ARG_OF_PERICENTER":"85.8974","PERIAPSIS":"546.408","TIME_SYSTEM":"UTC","APOAPSIS":"548.034","MEAN_ELEMENT_THEORY":"SGP4","TLE_LINE1":"1 48568U 21041R   22126.50057268 -.00000435  00000-0 -10325-4 0  9994","MEAN_MOTION_DOT":"-0.00000435","MEAN_MOTION_DDOT":"0.0000000000000","NORAD_CAT_ID":"48568","OBJECT_ID":"2021-041R","REV_AT_EPOCH":"5370","DECAY_DATE":null,"COUNTRY_CODE":"US"},{"OBJECT_TYPE":"PAYLOAD","MEAN_ANOMALY":"283.9217","MEAN_MOTION":"15.06409943","CENTER_NAME":"EARTH","SEMIMAJOR_AXIS":"6925.318","ECCENTRICITY":"0.00014900","GP_ID":"202861599","TLE_LINE2":"2 48569  53.0534 310.6761 0001490  76.1938 283.9217 15.06409943 53715","EPOCH":"2022-05-06T12:37:58.074240","SITE":"AFETR","ELEMENT_SET_NO":"999","REF_FRAME":"TEME","FILE":"3432208","ARG_OF_PERICENTER":"76.1938","PERIAPSIS":"546.151","APOAPSIS":"548.215","TIME_SYSTEM":"UTC","MEAN_ELEMENT_THEORY":"SGP4","TLE_LINE1":"1 48569U 21041S   22126.52636660  .00002007  00000-0  15353-3 0  9996","MEAN_MOTION_DOT":"0.00002007","MEAN_MOTION_DDOT":"0.0000000000000","NORAD_CAT_ID":"48569","OBJECT_ID":"2021-041S","REV_AT_EPOCH":"5371","DECAY_DATE":null,"COUNTRY_CODE":"US","PERIOD":"95.592","EPHEMERIS_TYPE":"0","INCLINATION":"53.0534","BSTAR":"0.00015353000000","LAUNCH_DATE":"2021-05-15","RA_OF_ASC_NODE":"310.6761","CLASSIFICATION_TYPE":"U","RCS_SIZE":"LARGE","OBJECT_NAME":"STARLINK-2219"},{"REF_FRAME":"TEME","ELEMENT_SET_NO":"999","SITE":"AFETR","EPOCH":"2022-05-06T05:58:34.400064","TLE_LINE2":"2 48570  53.0534 321.9042 0002201  72.9168 287.2062 15.06406001 53520","FILE":"3432208","MEAN_ANOMALY":"287.2062","OBJECT_TYPE":"PAYLOAD","GP_ID":"202861847","ECCENTRICITY":"0.00022010","SEMIMAJOR_AXIS":"6925.330","CENTER_NAME":"EARTH","MEAN_MOTION":"15.06406001","INCLINATION":"53.0534","EPHEMERIS_TYPE":"0","PERIOD":"95.592","OBJECT_NAME":"STARLINK-2220","RCS_SIZE":"LARGE","CLASSIFICATION_TYPE":"U","RA_OF_ASC_NODE":"321.9042","LAUNCH_DATE":"2021-05-15","BSTAR":"-0.00000164140000","MEAN_MOTION_DDOT":"0.0000000000000","MEAN_MOTION_DOT":"-0.00000306","OBJECT_ID":"2021-041T","NORAD_CAT_ID":"48570","TLE_LINE1":"1 48570U 21041T   22126.24900926 -.00000306  00000-0 -16414-5 0  9999","MEAN_ELEMENT_THEORY":"SGP4","TIME_SYSTEM":"UTC","APOAPSIS":"548.719","PERIAPSIS":"545.671","ARG_OF_PERICENTER":"72.9168","COUNTRY_CODE":"US","DECAY_DATE":null,"REV_AT_EPOCH":"5352"},{"FILE":"3432208","TLE_LINE2":"2 48571  53.0562 323.0772 0001289  81.3270 278.7865 15.06402681 53490","EPOCH":"2022-05-05T23:47:01.541184","ELEMENT_SET_NO":"999","SITE":"AFETR","REF_FRAME":"TEME","SEMIMAJOR_AXIS":"6925.340","ECCENTRICITY":"0.00012890","GP_ID":"202861572","MEAN_MOTION":"15.06402681","CENTER_NAME":"EARTH","MEAN_ANOMALY":"278.7865","OBJECT_TYPE":"PAYLOAD","RCS_SIZE":"LARGE","CLASSIFICATION_TYPE":"U","OBJECT_NAME":"STARLINK-2221","BSTAR":"0.00013557000000","LAUNCH_DATE":"2021-05-15","RA_OF_ASC_NODE":"323.0772","PERIOD":"95.592","EPHEMERIS_TYPE":"0","INCLINATION":"53.0562","DECAY_DATE":null,"COUNTRY_CODE":"US","REV_AT_EPOCH":"5349","APOAPSIS":"548.098","TIME_SYSTEM":"UTC","MEAN_ELEMENT_THEORY":"SGP4","TLE_LINE1":"1 48571U 21041U   22125.99099006  .00001739  00000-0  13557-3 0  9991","MEAN_MOTION_DDOT":"0.0000000000000","NORAD_CAT_ID":"48571","MEAN_MOTION_DOT":"0.00001739","OBJECT_ID":"2021-041U","ARG_OF_PERICENTER":"81.3270","PERIAPSIS":"546.313"},{"REF_FRAME":"TEME","SITE":"AFETR","ELEMENT_SET_NO":"999","TLE_LINE2":"2 48572  53.0540 319.2177 0001291  87.7535 272.3601 15.06402365 54027","EPOCH":"2022-05-06T20:23:43.209888","FILE":"3432535","OBJECT_TYPE":"PAYLOAD","MEAN_ANOMALY":"272.3601","CENTER_NAME":"EARTH","MEAN_MOTION":"15.06402365","GP_ID":"202871670","ECCENTRICITY":"0.00012910","SEMIMAJOR_AXIS":"6925.341","INCLINATION":"53.0540","EPHEMERIS_TYPE":"0","PERIOD":"95.592","RA_OF_ASC_NODE":"319.2177","LAUNCH_DATE":"2021-05-15","BSTAR":"0.00018487000000","OBJECT_NAME":"STARLINK-2222","CLASSIFICATION_TYPE":"U","RCS_SIZE":"LARGE","PERIAPSIS":"546.312","ARG_OF_PERICENTER":"87.7535","MEAN_MOTION_DOT":"0.00002473","MEAN_MOTION_DDOT":"0.0000000000000","OBJECT_ID":"2021-041V","NORAD_CAT_ID":"48572","TLE_LINE1":"1 48572U 21041V   22126.84980567  .00002473  00000-0  18487-3 0  9991","MEAN_ELEMENT_THEORY":"SGP4","TIME_SYSTEM":"UTC","APOAPSIS":"548.100","REV_AT_EPOCH":"5402","COUNTRY_CODE":"US","DECAY_DATE":null},{"EPHEMERIS_TYPE":"0","PERIOD":"95.592","INCLINATION":"53.0546","BSTAR":"-0.00002103800000","RA_OF_ASC_NODE":"309.5928","LAUNCH_DATE":"2021-05-15","RCS_SIZE":"LARGE","CLASSIFICATION_TYPE":"U","OBJECT_NAME":"STARLINK-2224","ARG_OF_PERICENTER":"62.3675","PERIAPSIS":"546.176","MEAN_ELEMENT_THEORY":"SGP4","TIME_SYSTEM":"UTC","APOAPSIS":"548.252","OBJECT_ID":"2021-041W","MEAN_MOTION_DDOT":"0.0000000000000","MEAN_MOTION_DOT":"-0.00000595","NORAD_CAT_ID":"48573","TLE_LINE1":"1 48573U 21041W   22126.76227138 -.00000595  00000-0 -21038-4 0  9993","REV_AT_EPOCH":"5419","COUNTRY_CODE":"US","DECAY_DATE":null,"ELEMENT_SET_NO":"999","SITE":"AFETR","EPOCH":"2022-05-06T18:17:40.247232","TLE_LINE2":"2 48573  53.0546 309.5928 0001499  62.3675 297.7466 15.06399979 54198","REF_FRAME":"TEME","FILE":"3432535","OBJECT_TYPE":"PAYLOAD","MEAN_ANOMALY":"297.7466","CENTER_NAME":"EARTH","MEAN_MOTION":"15.06399979","SEMIMAJOR_AXIS":"6925.349","GP_ID":"202871672","ECCENTRICITY":"0.00014990"},{"OBJECT_TYPE":"PAYLOAD","MEAN_ANOMALY":"273.2081","CENTER_NAME":"EARTH","MEAN_MOTION":"15.06375375","SEMIMAJOR_AXIS":"6925.424","GP_ID":"202871664","ECCENTRICITY":"0.00016130","SITE":"AFETR","ELEMENT_SET_NO":"999","TLE_LINE2":"2 48574  53.0540 278.9085 0001613  54.8431 273.2081 15.06375375 54578","EPOCH":"2022-05-06T22:00:00.999936","REF_FRAME":"TEME","FILE":"3432535","ARG_OF_PERICENTER":"54.8431","PERIAPSIS":"546.172","MEAN_ELEMENT_THEORY":"SGP4","TIME_SYSTEM":"UTC","APOAPSIS":"548.406","MEAN_MOTION_DDOT":"0.0000000000000","OBJECT_ID":"2021-041X","MEAN_MOTION_DOT":"0.00017943","NORAD_CAT_ID":"48574","TLE_LINE1":"1 48574U 21041X   22126.91667824  .00017943  00000-0  12212-2 0  9996","REV_AT_EPOCH":"5457","COUNTRY_CODE":"US","DECAY_DATE":null,"EPHEMERIS_TYPE":"0","PERIOD":"95.594","INCLINATION":"53.0540","BSTAR":"0.00122120000000","RA_OF_ASC_NODE":"278.9085","LAUNCH_DATE":"2021-05-15","RCS_SIZE":"LARGE","CLASSIFICATION_TYPE":"U","OBJECT_NAME":"STARLINK-2225"},{"OBJECT_NAME":"STARLINK-2227","RCS_SIZE":"LARGE","CLASSIFICATION_TYPE":"U","LAUNCH_DATE":"2021-05-15","RA_OF_ASC_NODE":"270.4147","BSTAR":"-0.00417910000000","INCLINATION":"53.0526","PERIOD":"95.590","EPHEMERIS_TYPE":"0","DECAY_DATE":null,"COUNTRY_CODE":"US","REV_AT_EPOCH":"361","TLE_LINE1":"1 48575U 21041Y   22126.58334491 -.00062042  00000-0 -41791-2 0  9997","MEAN_MOTION_DDOT":"0.0000000000000","MEAN_MOTION_DOT":"-0.00062042","OBJECT_ID":"2021-041Y","NORAD_CAT_ID":"48575","APOAPSIS":"548.228","TIME_SYSTEM":"UTC","MEAN_ELEMENT_THEORY":"SGP4","PERIAPSIS":"546.007","ARG_OF_PERICENTER":"74.7416","FILE":"3432208","REF_FRAME":"TEME","EPOCH":"2022-05-06T14:00:01.000224","TLE_LINE2":"2 48575  53.0526 270.4147 0001603  74.7416 279.6272 15.06431311  3616","SITE":"AFETR","ELEMENT_SET_NO":"999","ECCENTRICITY":"0.00016030","GP_ID":"202862073","SEMIMAJOR_AXIS":"6925.253","MEAN_MOTION":"15.06431311","CENTER_NAME":"EARTH","MEAN_ANOMALY":"279.6272","OBJECT_TYPE":"PAYLOAD"},{"EPHEMERIS_TYPE":"0","PERIOD":"95.593","INCLINATION":"53.0577","RCS_SIZE":"LARGE","CLASSIFICATION_TYPE":"U","OBJECT_NAME":"STARLINK-2228","BSTAR":"0.00131390000000","RA_OF_ASC_NODE":"283.8626","LAUNCH_DATE":"2021-05-15","MEAN_ELEMENT_THEORY":"SGP4","APOAPSIS":"548.400","TIME_SYSTEM":"UTC","MEAN_MOTION_DDOT":"0.0000000000000","MEAN_MOTION_DOT":"0.00019336","NORAD_CAT_ID":"48576","OBJECT_ID":"2021-041Z","TLE_LINE1":"1 48576U 21041Z   22126.91667824  .00019336  00000-0  13139-2 0  9995","ARG_OF_PERICENTER":"54.1033","PERIAPSIS":"546.109","COUNTRY_CODE":"US","DECAY_DATE":null,"REV_AT_EPOCH":"5457","ELEMENT_SET_NO":"999","SITE":"AFETR","TLE_LINE2":"2 48576  53.0577 283.8626 0001654  54.1033 141.2949 15.06386693 54574","EPOCH":"2022-05-06T22:00:00.999936","REF_FRAME":"TEME","FILE":"3432535","MEAN_ANOMALY":"141.2949","OBJECT_TYPE":"PAYLOAD","SEMIMAJOR_AXIS":"6925.389","GP_ID":"202871669","ECCENTRICITY":"0.00016540","CENTER_NAME":"EARTH","MEAN_MOTION":"15.06386693"}];
